

*******************************************************************************
Ephemeris / WWW_USER Thu Dec 21 08:05:25 2023 Pasadena, USA      / Horizons
*******************************************************************************
Target body name: Earth (399)                     {source: DE441}
Center body name: Solar System Barycenter (0)     {source: DE441}
Center-site name: BODY CENTER
*******************************************************************************
Start time      : A.D. 2022-Dec-01 00:00:00.0000 TDB
Stop  time      : A.D. 2023-Dec-01 00:00:00.0000 TDB
Step-size       : 1440 minutes
*******************************************************************************
Center geodetic : 0.0, 0.0, 0.0                   {E-lon(deg),Lat(deg),Alt(km)}
Center cylindric: 0.0, 0.0, 0.0                   {E-lon(deg),Dxy(km),Dz(km)}
Center radii    : (undefined)
Output units    : KM-S
Calendar mode   : Gregorian
Output type     : GEOMETRIC cartesian states
Output format   : 2 (position and velocity)
Reference frame : Ecliptic of J2000.0
*******************************************************************************
            JDTDB,            Calendar Date (TDB),                      X,                      Y,                      Z,                     VX,                     VY,                     VZ,
**************************************************************************************************************************************************************************************************
$$SOE
2460258.500000000, A.D. 2023-Nov-10 00:00:00.0000,  9.984329966973218E+07,  1.079786617965799E+08,  2.499444780835509E+04, -2.226320604705712E+01,  2.020518835696779E+01,  2.136501873284402E-05,
2460259.500000000, A.D. 2023-Nov-11 00:00:00.0000,  9.790435299577282E+07,  1.097077778063655E+08,  2.499963695632666E+04, -2.261870552107974E+01,  1.981948833936166E+01,  9.025941537466053E-05,
2460260.500000000, A.D. 2023-Nov-12 00:00:00.0000,  9.593498321799006E+07,  1.114032711520795E+08,  2.500851615382731E+04, -2.296740396648148E+01,  1.942690631241900E+01,  1.061440630714117E-04,
2460261.500000000, A.D. 2023-Nov-13 00:00:00.0000,  9.393578854970971E+07,  1.130645529534538E+08,  2.501637048175186E+04, -2.330905520227788E+01,  1.902758021139785E+01,  6.628052938140172E-05,
2460262.500000000, A.D. 2023-Nov-14 00:00:00.0000,  9.190738853432831E+07,  1.146910477383136E+08,  2.501835995248705E+04, -2.364341321626893E+01,  1.862168341270457E+01, -2.935158699823859E-05,
2460263.500000000, A.D. 2023-Nov-15 00:00:00.0000,  8.985042357647341E+07,  1.162821966958993E+08,  2.500978715314716E+04, -2.397024320548893E+01,  1.820942848857169E+01, -1.773321453848453E-04,
2460264.500000000, A.D. 2023-Nov-16 00:00:00.0000,  8.776555341282016E+07,  1.178374610561539E+08,  2.498641460121423E+04, -2.428933470319383E+01,  1.779106612652851E+01, -3.704065745866458E-04,
2460265.500000000, A.D. 2023-Nov-17 00:00:00.0000,  8.565345445083994E+07,  1.193563251348626E+08,  2.494479582256824E+04, -2.460051418953100E+01,  1.736687848350847E+01, -5.975788118304237E-04,
2460266.500000000, A.D. 2023-Nov-18 00:00:00.0000,  8.351481613635971E+07,  1.208382985891946E+08,  2.488257589475065E+04, -2.490365458809788E+01,  1.693716781669738E+01, -8.447170368635071E-04,
2460267.500000000, A.D. 2023-Nov-19 00:00:00.0000,  8.135033669756339E+07,  1.222829175572778E+08,  2.479872109497339E+04, -2.519868005627290E+01,  1.650224240437800E+01, -1.095562179116882E-03,
2460268.500000000, A.D. 2023-Nov-20 00:00:00.0000,  7.916071868997771E+07,  1.236897445449755E+08,  2.469365038213134E+04, -2.548556587155830E+01,  1.606240195075291E+01, -1.332961682373401E-03,
2460269.500000000, A.D. 2023-Nov-21 00:00:00.0000,  7.694666473803057E+07,  1.250583670865585E+08,  2.456925632788986E+04, -2.576433414756289E+01,  1.561792396722747E+01, -1.540174762097557E-03,
2460270.500000000, A.D. 2023-Nov-22 00:00:00.0000,  7.470887379751140E+07,  1.263883952956205E+08,  2.442881340622902E+04, -2.603504614942142E+01,  1.516905175846343E+01, -1.702166312409048E-03,
2460271.500000000, A.D. 2023-Nov-23 00:00:00.0000,  7.244803821914461E+07,  1.276794584592830E+08,  2.427677639398724E+04, -2.629779141984098E+01,  1.471598437523780E+01, -1.806849962694201E-03,
2460272.500000000, A.D. 2023-Nov-24 00:00:00.0000,  7.016484189526592E+07,  1.289312008790419E+08,  2.411847586721927E+04, -2.655267356850497E+01,  1.425886945166277E+01, -1.846208366210078E-03,
2460273.500000000, A.D. 2023-Nov-25 00:00:00.0000,  6.785995976840912E+07,  1.301432772789728E+08,  2.395972772090882E+04, -2.679979312748531E+01,  1.379780069910351E+01, -1.817128036692317E-03,
2460274.500000000, A.D. 2023-Nov-26 00:00:00.0000,  6.553405888623318E+07,  1.313153482709374E+08,  2.380639117143303E+04, -2.703922936341159E+01,  1.333282199863734E+01, -1.721717957977376E-03,
2460275.500000000, A.D. 2023-Nov-27 00:00:00.0000,  6.318780095263043E+07,  1.324470764912337E+08,  2.366392864371091E+04, -2.727102448633738E+01,  1.286393878749917E+01, -1.566928853677041E-03,
2460276.500000000, A.D. 2023-Nov-28 00:00:00.0000,  6.082184600127006E+07,  1.335381239845273E+08,  2.353702948678285E+04, -2.749517400867114E+01,  1.239113504931076E+01, -1.363477808835611E-03,
2460277.500000000, A.D. 2023-Nov-29 00:00:00.0000,  5.843685654869567E+07,  1.345881511630541E+08,  2.342934853974730E+04, -2.771162543249465E+01,  1.191439203134799E+01, -1.124323029118912E-03,
2460278.500000000, A.D. 2023-Nov-30 00:00:00.0000,  5.603350151180235E+07,  1.355968172949871E+08,  2.334338191933185E+04, -2.792028468656187E+01,  1.143370424874827E+01, -8.630812276022581E-04,
2460279.500000000, A.D. 2023-Dec-01 00:00:00.0000,  5.361245933506583E+07,  1.365637821399999E+08,  2.328046844377369E+04, -2.812102736866474E+01,  1.094908971337918E+01, -5.927513951968777E-04,
